SL-14 R/B               
1 16792U 86046B   26015.39392713  .00000343  00000+0  36656-4 0  9999
2 16792  82.4835 130.5330 0024169  46.8491 313.4740 14.85527842118497
SL-14 R/B               
1 16882U 86055B   26015.38408895  .00000406  00000+0  44002-4 0  9991
2 16882  82.5206 176.7574 0019762 145.0145 238.4366 14.85571579111458
AJISAI (EGS)            
1 16908U 86061A   26015.46947468 -.00000070  00000+0  19165-3 0  9999
2 16908  50.0079 257.0021 0011298 150.6099 267.4653 12.44514935461377
COSMOS 1812             
1 17295U 87003A   26015.11728332  .00102594  00000+0  45449-3 0  9992
2 17295  82.4839 255.6687 0002819  49.8438 310.3078 15.84097988135926
SL-14 R/B               
1 17567U 87024B   26015.37937357  .00000365  00000+0  38769-4 0  9995
2 17567  82.5300 142.8550 0019708  78.4662 281.8766 14.86067955 80219
COSMOS 1833             
1 17589U 87027A   26015.48491597  .00000298  00000+0  18509-3 0  9999
2 17589  70.9192  77.8442 0024134 285.2009  74.6444 14.13044241  2805
SL-16 R/B               
1 17590U 87027B   26015.47148233 -.00000089  00000+0 -20378-4 0  9994
2 17590  71.0033  28.6371 0006448 223.8020 136.2593 14.17160368  7805
SL-14 R/B               
1 17912U 87038B   26015.41423671  .00000382  00000+0  41536-4 0  9993
2 17912  82.5025 346.9801 0018884 345.6201  14.4475 14.85300997 71329
COSMOS 1844             
1 17973U 87041A   26015.36404282 -.00000264  00000+0 -11202-3 0  9992
2 17973  70.8996 146.6533 0028283 103.5171 256.9104 14.14537757996046
SL-14 R/B               
1 18153U 87055B   26015.46765906  .00000324  00000+0  34498-4 0  9990
2 18153  82.4977  39.1955 0020480 185.2751 174.8253 14.85558766 62038
COSMOS 1867             
1 18187U 87060A   26015.48603968 -.00000061  00000+0  14908-4 0  9997
2 18187  65.0112  95.7005 0013864 274.4001  85.5499 14.31492631 12320
SL-14 R/B               
1 18749U 88001B   26015.12264969  .00000291  00000+0  30856-4 0  9996
2 18749  82.5114 245.7495 0019399  58.0309 302.2789 14.85461311 34073
